[Satellite]
VERSION=1.1
NAME=CZ-6A DEB
NICKNAME=CZ-6A DEB
TLE1=1 54333U 22151CC  22342.47557297  .00005891  00000+0  16750-2 0  9991
TLE2=2 54333  98.7058 347.6054 0138656 219.4458 139.6571 14.40236453  3263
STATUS=0
